start=new Date('2023-02-15T00:00:00.000Z').valueOf();
sats=[{"MEAN_MOTION_DOT":"0.00038482","OBJECT_ID":"2020-070L","NORAD_CAT_ID":"46542","EPOCH":"2023-02-14T13:51:18.785664","TLE_LINE2":"2 46542  53.0499 160.5111 0001146  86.0058 274.1062 15.06411511130840","REV_AT_EPOCH":"13084","SEMIMAJOR_AXIS":"6925.313","MEAN_ANOMALY":"274.1062","APOAPSIS":"547.972","ECCENTRICITY":"0.00011460","ARG_OF_PERICENTER":"86.0058","ELEMENT_SET_NO":"999","BSTAR":"0.00258750000000","FILE":"3791929","SITE":"AFETR","RA_OF_ASC_NODE":"160.5111","RCS_SIZE":"LARGE","GP_ID":"225406456","MEAN_MOTION":"15.06411511","LAUNCH_DATE":"2020-10-06","MEAN_ELEMENT_THEORY":"SGP4","DECAY_DATE":null,"OBJECT_TYPE":"PAYLOAD","MEAN_MOTION_DDOT":"0.0000000000000","PERIOD":"95.591","CLASSIFICATION_TYPE":"U","TLE_LINE1":"1 46542U 20070L   23045.57730076  .00038482  00000-0  25875-2 0  9993","CENTER_NAME":"EARTH","REF_FRAME":"TEME","OBJECT_NAME":"STARLINK-1692","EPHEMERIS_TYPE":"0","INCLINATION":"53.0499","TIME_SYSTEM":"UTC","PERIAPSIS":"546.385","COUNTRY_CODE":"US"},{"APOAPSIS":"548.494","MEAN_ANOMALY":"282.6760","SEMIMAJOR_AXIS":"6925.600","REV_AT_EPOCH":"13087","TLE_LINE2":"2 46543  53.0510 159.0874 0001486  77.4395 282.6760 15.06318042130876","EPOCH":"2023-02-14T21:27:46.406304","NORAD_CAT_ID":"46543","MEAN_MOTION_DOT":"0.00041228","OBJECT_ID":"2020-070M","LAUNCH_DATE":"2020-10-06","MEAN_MOTION":"15.06318042","RCS_SIZE":"LARGE","GP_ID":"225430568","SITE":"AFETR","RA_OF_ASC_NODE":"159.0874","FILE":"3792084","BSTAR":"0.00277670000000","ELEMENT_SET_NO":"999","ARG_OF_PERICENTER":"77.4395","ECCENTRICITY":"0.00014860","REF_FRAME":"TEME","CENTER_NAME":"EARTH","OBJECT_NAME":"STARLINK-1693","TLE_LINE1":"1 46543U 20070M   23045.89428711  .00041228  00000-0  27767-2 0  9993","CLASSIFICATION_TYPE":"U","PERIOD":"95.597","MEAN_MOTION_DDOT":"0.0000000000000","OBJECT_TYPE":"PAYLOAD","DECAY_DATE":null,"MEAN_ELEMENT_THEORY":"SGP4","COUNTRY_CODE":"US","PERIAPSIS":"546.436","TIME_SYSTEM":"UTC","INCLINATION":"53.0510","EPHEMERIS_TYPE":"0"},{"SITE":"AFETR","RA_OF_ASC_NODE":"145.0050","MEAN_MOTION":"15.06404864","RCS_SIZE":"LARGE","GP_ID":"225430309","LAUNCH_DATE":"2020-10-06","ECCENTRICITY":"0.00012700","ELEMENT_SET_NO":"999","ARG_OF_PERICENTER":"87.5863","BSTAR":"0.00012662000000","FILE":"3792084","TLE_LINE2":"2 46544  53.0521 145.0050 0001270  87.5863 272.5272 15.06404864131058","REV_AT_EPOCH":"13105","SEMIMAJOR_AXIS":"6925.334","APOAPSIS":"548.078","MEAN_ANOMALY":"272.5272","MEAN_MOTION_DOT":"0.00001605","OBJECT_ID":"2020-070N","EPOCH":"2023-02-14T16:35:11.247360","NORAD_CAT_ID":"46544","TIME_SYSTEM":"UTC","COUNTRY_CODE":"US","PERIAPSIS":"546.319","EPHEMERIS_TYPE":"0","INCLINATION":"53.0521","TLE_LINE1":"1 46544U 20070N   23045.69110240  .00001605  00000-0  12662-3 0  9991","CLASSIFICATION_TYPE":"U","OBJECT_NAME":"STARLINK-1694","CENTER_NAME":"EARTH","REF_FRAME":"TEME","MEAN_ELEMENT_THEORY":"SGP4","DECAY_DATE":null,"OBJECT_TYPE":"PAYLOAD","MEAN_MOTION_DDOT":"0.0000000000000","PERIOD":"95.592"},{"FILE":"3792084","BSTAR":"0.00012554000000","ARG_OF_PERICENTER":"78.6534","ELEMENT_SET_NO":"999","ECCENTRICITY":"0.00010310","LAUNCH_DATE":"2020-10-06","GP_ID":"225429069","RCS_SIZE":"LARGE","MEAN_MOTION":"15.06423781","RA_OF_ASC_NODE":"159.5143","SITE":"AFETR","NORAD_CAT_ID":"46545","EPOCH":"2023-02-14T19:09:45.133920","OBJECT_ID":"2020-070P","MEAN_MOTION_DOT":"0.00001590","MEAN_ANOMALY":"281.4571","APOAPSIS":"547.855","SEMIMAJOR_AXIS":"6925.276","TLE_LINE2":"2 46545  53.0546 159.5143 0001031  78.6534 281.4571 15.06423781130857","REV_AT_EPOCH":"13085","INCLINATION":"53.0546","EPHEMERIS_TYPE":"0","PERIAPSIS":"546.427","COUNTRY_CODE":"US","TIME_SYSTEM":"UTC","PERIOD":"95.591","MEAN_MOTION_DDOT":"0.0000000000000","OBJECT_TYPE":"PAYLOAD","DECAY_DATE":null,"MEAN_ELEMENT_THEORY":"SGP4","CENTER_NAME":"EARTH","OBJECT_NAME":"STARLINK-1696","REF_FRAME":"TEME","CLASSIFICATION_TYPE":"U","TLE_LINE1":"1 46545U 20070P   23045.79843905  .00001590  00000-0  12554-3 0  9997"},{"COUNTRY_CODE":"US","PERIAPSIS":"546.453","TIME_SYSTEM":"UTC","INCLINATION":"53.0525","EPHEMERIS_TYPE":"0","CENTER_NAME":"EARTH","OBJECT_NAME":"STARLINK-1697","REF_FRAME":"TEME","TLE_LINE1":"1 46546U 20070Q   23045.58467885  .00002376  00000-0  17837-3 0  9996","CLASSIFICATION_TYPE":"U","PERIOD":"95.593","OBJECT_TYPE":"PAYLOAD","MEAN_MOTION_DDOT":"0.0000000000000","DECAY_DATE":null,"MEAN_ELEMENT_THEORY":"SGP4","LAUNCH_DATE":"2020-10-06","MEAN_MOTION":"15.06393900","GP_ID":"225390451","RCS_SIZE":"LARGE","SITE":"AFETR","RA_OF_ASC_NODE":"160.4802","FILE":"3791349","BSTAR":"0.00017837000000","ELEMENT_SET_NO":"999","ARG_OF_PERICENTER":"88.5727","ECCENTRICITY":"0.00011250","APOAPSIS":"548.011","MEAN_ANOMALY":"271.5391","SEMIMAJOR_AXIS":"6925.367","TLE_LINE2":"2 46546  53.0525 160.4802 0001125  88.5727 271.5391 15.06393900130822","REV_AT_EPOCH":"13082","EPOCH":"2023-02-14T14:01:56.252640","NORAD_CAT_ID":"46546","MEAN_MOTION_DOT":"0.00002376","OBJECT_ID":"2020-070Q"},{"APOAPSIS":"547.940","MEAN_ANOMALY":"276.0384","SEMIMAJOR_AXIS":"6925.309","REV_AT_EPOCH":"13085","TLE_LINE2":"2 46547  53.0518 159.7457 0001105  84.0731 276.0384 15.06412746130851","NORAD_CAT_ID":"46547","EPOCH":"2023-02-14T17:54:06.155712","MEAN_MOTION_DOT":"0.00006143","OBJECT_ID":"2020-070R","LAUNCH_DATE":"2020-10-06","MEAN_MOTION":"15.06412746","RCS_SIZE":"LARGE","GP_ID":"225430069","RA_OF_ASC_NODE":"159.7457","SITE":"AFETR","FILE":"3792084","BSTAR":"0.00043075000000","ELEMENT_SET_NO":"999","ARG_OF_PERICENTER":"84.0731","ECCENTRICITY":"0.00011050","CENTER_NAME":"EARTH","REF_FRAME":"TEME","OBJECT_NAME":"STARLINK-1698","TLE_LINE1":"1 46547U 20070R   23045.74590458  .00006143  00000-0  43075-3 0  9997","CLASSIFICATION_TYPE":"U","PERIOD":"95.591","MEAN_MOTION_DDOT":"0.0000000000000","OBJECT_TYPE":"PAYLOAD","DECAY_DATE":null,"MEAN_ELEMENT_THEORY":"SGP4","COUNTRY_CODE":"US","PERIAPSIS":"546.409","TIME_SYSTEM":"UTC","INCLINATION":"53.0518","EPHEMERIS_TYPE":"0"},{"EPHEMERIS_TYPE":"0","INCLINATION":"53.0544","COUNTRY_CODE":"US","PERIAPSIS":"546.237","TIME_SYSTEM":"UTC","DECAY_DATE":null,"MEAN_ELEMENT_THEORY":"SGP4","PERIOD":"95.592","OBJECT_TYPE":"PAYLOAD","MEAN_MOTION_DDOT":"0.0000000000000","TLE_LINE1":"1 46548U 20070S   23045.69156587  .00002013  00000-0  15401-3 0  9997","CLASSIFICATION_TYPE":"U","REF_FRAME":"TEME","OBJECT_NAME":"STARLINK-1699","CENTER_NAME":"EARTH","ELEMENT_SET_NO":"999","ARG_OF_PERICENTER":"100.7397","ECCENTRICITY":"0.00014070","FILE":"3792084","BSTAR":"0.00015401000000","RA_OF_ASC_NODE":"160.0013","SITE":"AFETR","LAUNCH_DATE":"2020-10-06","MEAN_MOTION":"15.06400634","GP_ID":"225430809","RCS_SIZE":"LARGE","OBJECT_ID":"2020-070S","MEAN_MOTION_DOT":"0.00002013","EPOCH":"2023-02-14T16:35:51.291168","NORAD_CAT_ID":"46548","REV_AT_EPOCH":"13084","TLE_LINE2":"2 46548  53.0544 160.0013 0001407 100.7397 259.3750 15.06400634130846","APOAPSIS":"548.186","MEAN_ANOMALY":"259.3750","SEMIMAJOR_AXIS":"6925.347"},{"CENTER_NAME":"EARTH","OBJECT_NAME":"STARLINK-1700","REF_FRAME":"TEME","CLASSIFICATION_TYPE":"U","TLE_LINE1":"1 46549U 20070T   23045.58836866  .00041152  00000-0  27618-2 0  9990","PERIOD":"95.589","OBJECT_TYPE":"PAYLOAD","MEAN_MOTION_DDOT":"0.0000000000000","DECAY_DATE":null,"MEAN_ELEMENT_THEORY":"SGP4","PERIAPSIS":"546.126","COUNTRY_CODE":"US","TIME_SYSTEM":"UTC","INCLINATION":"53.0497","EPHEMERIS_TYPE":"0","MEAN_ANOMALY":"280.2346","APOAPSIS":"547.994","SEMIMAJOR_AXIS":"6925.195","REV_AT_EPOCH":"13082","TLE_LINE2":"2 46549  53.0497 160.4636 0001349  79.8795 280.2346 15.06450125130824","EPOCH":"2023-02-14T14:07:15.052224","NORAD_CAT_ID":"46549","OBJECT_ID":"2020-070T","MEAN_MOTION_DOT":"0.00041152","LAUNCH_DATE":"2020-10-06","GP_ID":"225389707","RCS_SIZE":"LARGE","MEAN_MOTION":"15.06450125","SITE":"AFETR","RA_OF_ASC_NODE":"160.4636","FILE":"3791349","BSTAR":"0.00276180000000","ARG_OF_PERICENTER":"79.8795","ELEMENT_SET_NO":"999","ECCENTRICITY":"0.00013490"},{"EPOCH":"2023-02-14T20:08:09.451392","NORAD_CAT_ID":"46550","MEAN_MOTION_DOT":"0.00037841","OBJECT_ID":"2020-070U","APOAPSIS":"547.404","MEAN_ANOMALY":"267.0850","SEMIMAJOR_AXIS":"6925.249","REV_AT_EPOCH":"13086","TLE_LINE2":"2 46550  53.0524 159.3354 0000418  93.0187 267.0850 15.06432379130868","FILE":"3792084","BSTAR":"0.00254350000000","ELEMENT_SET_NO":"999","ARG_OF_PERICENTER":"93.0187","ECCENTRICITY":"0.00004180","LAUNCH_DATE":"2020-10-06","MEAN_MOTION":"15.06432379","RCS_SIZE":"LARGE","GP_ID":"225429817","RA_OF_ASC_NODE":"159.3354","SITE":"AFETR","PERIOD":"95.590","OBJECT_TYPE":"PAYLOAD","MEAN_MOTION_DDOT":"0.0000000000000","DECAY_DATE":null,"MEAN_ELEMENT_THEORY":"SGP4","OBJECT_NAME":"STARLINK-1701","CENTER_NAME":"EARTH","REF_FRAME":"TEME","TLE_LINE1":"1 46550U 20070U   23045.83899828  .00037841  00000-0  25435-2 0  9992","CLASSIFICATION_TYPE":"U","INCLINATION":"53.0524","EPHEMERIS_TYPE":"0","COUNTRY_CODE":"US","PERIAPSIS":"546.825","TIME_SYSTEM":"UTC"},{"TLE_LINE1":"1 46552U 20070W   23045.83334491  .00204081  00000-0  13477-2 0  9999","CLASSIFICATION_TYPE":"U","OBJECT_NAME":"STARLINK-1649","REF_FRAME":"TEME","CENTER_NAME":"EARTH","MEAN_ELEMENT_THEORY":"SGP4","DECAY_DATE":null,"MEAN_MOTION_DDOT":"0.0000000000000","OBJECT_TYPE":"PAYLOAD","PERIOD":"91.461","TIME_SYSTEM":"UTC","COUNTRY_CODE":"US","PERIAPSIS":"341.694","EPHEMERIS_TYPE":"0","INCLINATION":"53.0416","REV_AT_EPOCH":"130","TLE_LINE2":"2 46552  53.0416  79.5343 0006714  50.1592 195.8613 15.74446458  1309","SEMIMAJOR_AXIS":"6724.344","APOAPSIS":"350.724","MEAN_ANOMALY":"195.8613","MEAN_MOTION_DOT":"0.00204081","OBJECT_ID":"2020-070W","NORAD_CAT_ID":"46552","EPOCH":"2023-02-14T20:00:01.000224","SITE":"AFETR","RA_OF_ASC_NODE":"79.5343","MEAN_MOTION":"15.74446458","GP_ID":"225430569","RCS_SIZE":"LARGE","LAUNCH_DATE":"2020-10-06","ECCENTRICITY":"0.00067140","ELEMENT_SET_NO":"999","ARG_OF_PERICENTER":"50.1592","BSTAR":"0.00134770000000","FILE":"3792084"}];
